[{"OBJECT_NAME":"SITRO-AIS 27","OBJECT_ID":"2024-039T","EPOCH":"2026-03-09T23:22:19.197120","MEAN_MOTION":14.92842486,"ECCENTRICITY":0.01447292,"INCLINATION":95.3935,"RA_OF_ASC_NODE":167.0882,"ARG_OF_PERICENTER":314.6456,"MEAN_ANOMALY":44.3041,"EPHEMERIS_TYPE":0,"CLASSIFICATION_TYPE":"U","NORAD_CAT_ID":59068,"ELEMENT_SET_NO":999,"REV_AT_EPOCH":10993,"BSTAR":0.00034082381,"MEAN_MOTION_DOT":4.294e-5,"MEAN_MOTION_DDOT":0},{"OBJECT_NAME":"FENGYUN 1C DEB","OBJECT_ID":"1999-025ANY","EPOCH":"2026-03-09T08:51:51.179904","MEAN_MOTION":14.80233032,"ECCENTRICITY":0.01316132,"INCLINATION":98.9514,"RA_OF_ASC_NODE":17.5129,"ARG_OF_PERICENTER":213.735,"MEAN_ANOMALY":278.8739,"EPHEMERIS_TYPE":0,"CLASSIFICATION_TYPE":"U","NORAD_CAT_ID":30641,"ELEMENT_SET_NO":999,"REV_AT_EPOCH":1813,"BSTAR":0.00059169636,"MEAN_MOTION_DOT":5.147e-5,"MEAN_MOTION_DDOT":0}]
